STARLINK-1749_new
1 16589C 20070BK  21326.15328252  .00000338  00000-0  22627-4 0  3264
2 16589  53.0544 358.0512 0001506  53.6222 330.4348 15.06391889    17
STARLINK-1749_old
1 26589C 20070BK  21325.17134240 -.00020021  00000-0 -13418-2 0  3255
2 26589  53.0545   2.4593 0001457  55.6198  40.4233 15.06409081    11
